[{"OBJECT_NAME":"YAOGAN-21","OBJECT_ID":"2014-053A","EPOCH":"2026-03-09T23:50:42.268992","MEAN_MOTION":15.2493211,"ECCENTRICITY":0.00100966,"INCLINATION":97.1617,"RA_OF_ASC_NODE":113.5215,"ARG_OF_PERICENTER":86.0219,"MEAN_ANOMALY":274.2173,"EPHEMERIS_TYPE":0,"CLASSIFICATION_TYPE":"U","NORAD_CAT_ID":40143,"ELEMENT_SET_NO":999,"REV_AT_EPOCH":63983,"BSTAR":0.00033036554,"MEAN_MOTION_DOT":8.172e-5,"MEAN_MOTION_DDOT":0},{"OBJECT_NAME":"SEMI-1N","OBJECT_ID":"2025-248E","EPOCH":"2026-03-09T00:40:10.078752","MEAN_MOTION":15.21438314,"ECCENTRICITY":0.00099016,"INCLINATION":45.4059,"RA_OF_ASC_NODE":296.6023,"ARG_OF_PERICENTER":200.0771,"MEAN_ANOMALY":159.9728,"EPHEMERIS_TYPE":0,"CLASSIFICATION_TYPE":"U","NORAD_CAT_ID":66297,"ELEMENT_SET_NO":999,"REV_AT_EPOCH":1929,"BSTAR":0.00035121654,"MEAN_MOTION_DOT":7.76e-5,"MEAN_MOTION_DDOT":0}]
